{
    "links": {
        "self": "http://www.neowsapp.com/rest/v1/neo/3736246?api_key=iIulBulltgU6a56xZRHN4H3l9WmuAYTsLGpBGhQ2"
    },
    "id": "3736246",
    "neo_reference_id": "3736246",
    "name": "(2015 XB130)",
    "designation": "2015 XB130",
    "nasa_jpl_url": "http://ssd.jpl.nasa.gov/sbdb.cgi?sstr=3736246",
    "absolute_magnitude_h": 21.8,
    "estimated_diameter": {
        "kilometers": {
            "estimated_diameter_min": 0.1160259082,
            "estimated_diameter_max": 0.2594418179
        },
        "meters": {
            "estimated_diameter_min": 116.0259082094,
            "estimated_diameter_max": 259.4418179074
        },
        "miles": {
            "estimated_diameter_min": 0.0720951346,
            "estimated_diameter_max": 0.1612096218
        },
        "feet": {
            "estimated_diameter_min": 380.6624406898,
            "estimated_diameter_max": 851.1870938635
        }
    },
    "is_potentially_hazardous_asteroid": false,
    "close_approach_data": [
        {
            "close_approach_date": "2015-11-28",
            "close_approach_date_full": "2015-Nov-28 14:04",
            "epoch_date_close_approach": 1448719440000,
            "relative_velocity": {
                "kilometers_per_second": "19.5882962636",
                "kilometers_per_hour": "70517.8665488257",
                "miles_per_hour": "43817.0599119634"
            },
            "miss_distance": {
                "astronomical": "0.3145659066",
                "lunar": "122.3661376674",
                "kilometers": "47058389.601978942",
                "miles": "29240727.3881237196"
            },
            "orbiting_body": "Earth"
        }
    ],
    "orbital_data": {
        "orbit_id": "8",
        "orbit_determination_date": "2017-04-06 08:30:05",
        "first_observation_date": "2015-12-01",
        "last_observation_date": "2015-12-29",
        "data_arc_in_days": 28,
        "observations_used": 33,
        "orbit_uncertainty": "7",
        "minimum_orbit_intersection": ".0581819",
        "jupiter_tisserand_invariant": "3.065",
        "epoch_osculation": "2459000.5",
        "eccentricity": ".6162928089902984",
        "semi_major_axis": "2.642783015893554",
        "inclination": "12.51961078179377",
        "ascending_node_longitude": "47.01657301752814",
        "orbital_period": "1569.244761437944",
        "perihelion_distance": "1.014054847476663",
        "perihelion_argument": "330.5661062477042",
        "aphelion_distance": "4.271511184310445",
        "perihelion_time": "2458897.054131420812",
        "mean_anomaly": "23.73148765803959",
        "mean_motion": ".2294097191505814",
        "equinox": "J2000",
        "orbit_class": {
            "orbit_class_type": "APO",
            "orbit_class_description": "Near-Earth asteroid orbits which cross the Earth’s orbit similar to that of 1862 Apollo",
            "orbit_class_range": "a (semi-major axis) > 1.0 AU; q (perihelion) < 1.017 AU"
        }
    },
    "is_sentry_object": false
}